{
  "type": "FeatureCollection",
  "name": "SAMPLE DNO licence areas — INVENTED, not NESO data",
  "features": [
    {
      "type": "Feature",
      "properties": {
        "Name": "Northern Powergrid (Yorkshire)",
        "ID": "SAMPLE-NPG-Y",
        "version_date": "2026-04-01"
      },
      "geometry": {
        "type": "Polygon",
        "coordinates": [[[-1.60, 53.30], [-0.60, 53.30], [-0.60, 53.90], [-1.60, 53.90], [-1.60, 53.30]]]
      }
    },
    {
      "type": "Feature",
      "properties": {
        "Name": "National Grid Electricity Distribution (East Midlands)",
        "ID": "SAMPLE-NGED-EM",
        "version_date": "2026-04-01"
      },
      "geometry": {
        "type": "Polygon",
        "coordinates": [[[-1.60, 52.60], [-0.60, 52.60], [-0.60, 53.30], [-1.60, 53.30], [-1.60, 52.60]]]
      }
    },
    {
      "type": "Feature",
      "properties": {
        "Name": "Some Independent Network Operator",
        "ID": "SAMPLE-IDNO",
        "version_date": "2026-04-01"
      },
      "geometry": {
        "type": "Polygon",
        "coordinates": [[[-1.20, 53.45], [-1.10, 53.45], [-1.10, 53.50], [-1.20, 53.50], [-1.20, 53.45]]]
      }
    }
  ]
}
