{"type":"FeatureCollection","name":"SAMPLE OS OpenMap Local buildings — INVENTED, not OS data","features":[
{"type": "Feature", "properties": {"fid": "SAMPLE-BLD-0001"}, "geometry": {"type": "Polygon", "coordinates": [[[-1.12155, 53.50745], [-1.12045, 53.50745], [-1.12045, 53.50795], [-1.12155, 53.50795], [-1.12155, 53.50745]]]}},
{"type": "Feature", "properties": {"fid": "SAMPLE-BLD-0002"}, "geometry": {"type": "Polygon", "coordinates": [[[-1.12045, 53.50745], [-1.11865, 53.50745], [-1.11865, 53.50815], [-1.12045, 53.50815], [-1.12045, 53.50745]]]}},
{"type": "Feature", "properties": {"fid": "SAMPLE-BLD-0003"}, "geometry": {"type": "Polygon", "coordinates": [[[-1.1215, 53.507], [-1.1212, 53.507], [-1.1212, 53.5072], [-1.1215, 53.5072], [-1.1215, 53.507]]]}},
{"type": "Feature", "properties": {"fid": "SAMPLE-BLD-0004"}, "geometry": {"type": "Polygon", "coordinates": [[[-1.1234663412923356, 53.50435764256532], [-1.1225455937139037, 53.50435764256532], [-1.1225455937139037, 53.504701104337315], [-1.1234663412923356, 53.504701104337315], [-1.1234663412923356, 53.50435764256532]]]}},
{"type": "Feature", "properties": {"fid": "SAMPLE-BLD-0005"}, "geometry": {"type": "Polygon", "coordinates": [[[-1.1204976519397063, 53.506291200252214], [-1.1200512527998865, 53.506291200252214], [-1.1200512527998865, 53.50689566169213], [-1.1204976519397063, 53.50689566169213], [-1.1204976519397063, 53.506291200252214]]]}},
{"type": "Feature", "properties": {"fid": "SAMPLE-BLD-0006"}, "geometry": {"type": "Polygon", "coordinates": [[[-1.127475060781812, 53.50690281115296], [-1.1270191764429522, 53.50690281115296], [-1.1270191764429522, 53.50725723896097], [-1.127475060781812, 53.50725723896097], [-1.127475060781812, 53.50690281115296]]]}},
{"type": "Feature", "properties": {"fid": "SAMPLE-BLD-0007"}, "geometry": {"type": "Polygon", "coordinates": [[[-1.1220567313520047, 53.510441669122045], [-1.121557689783085, 53.510441669122045], [-1.121557689783085, 53.51087561250081], [-1.1220567313520047, 53.51087561250081], [-1.1220567313520047, 53.510441669122045]]]}},
{"type": "Feature", "properties": {"fid": "SAMPLE-BLD-0008"}, "geometry": {"type": "Polygon", "coordinates": [[[-1.1192159348863215, 53.511529380482116], [-1.1183542525274275, 53.511529380482116], [-1.1183542525274275, 53.51206738876691], [-1.1192159348863215, 53.51206738876691], [-1.1192159348863215, 53.511529380482116]]]}},
{"type": "Feature", "properties": {"fid": "SAMPLE-BLD-0009"}, "geometry": {"type": "Polygon", "coordinates": [[[-1.1143324285216991, 53.50341924412556], [-1.1132456537544602, 53.50341924412556], [-1.1132456537544602, 53.50389300969736], [-1.1143324285216991, 53.50389300969736], [-1.1143324285216991, 53.50341924412556]]]}},
{"type": "Feature", "properties": {"fid": "SAMPLE-BLD-0010"}, "geometry": {"type": "Polygon", "coordinates": [[[-1.1259804288329958, 53.504060130142705], [-1.1253336433737142, 53.504060130142705], [-1.1253336433737142, 53.50484980595817], [-1.1259804288329958, 53.50484980595817], [-1.1259804288329958, 53.504060130142705]]]}},
{"type": "Feature", "properties": {"fid": "SAMPLE-BLD-0011"}, "geometry": {"type": "Polygon", "coordinates": [[[-1.1254698306810649, 53.50823440147296], [-1.1245586999059238, 53.50823440147296], [-1.1245586999059238, 53.508757839998594], [-1.1254698306810649, 53.508757839998594], [-1.1254698306810649, 53.50823440147296]]]}},
{"type": "Feature", "properties": {"fid": "SAMPLE-BLD-0012"}, "geometry": {"type": "Polygon", "coordinates": [[[-1.1203315774800662, 53.50356510077476], [-1.1198838965440931, 53.50356510077476], [-1.1198838965440931, 53.50398867600245], [-1.1203315774800662, 53.50398867600245], [-1.1203315774800662, 53.50356510077476]]]}},
{"type": "Feature", "properties": {"fid": "SAMPLE-BLD-0013"}, "geometry": {"type": "Polygon", "coordinates": [[[-1.118474400375455, 53.506848330751026], [-1.1178230826391535, 53.506848330751026], [-1.1178230826391535, 53.50749966786913], [-1.118474400375455, 53.50749966786913], [-1.118474400375455, 53.506848330751026]]]}},
{"type": "Feature", "properties": {"fid": "SAMPLE-BLD-0014"}, "geometry": {"type": "Polygon", "coordinates": [[[-1.121655418730809, 53.505697902971775], [-1.120619915145591, 53.505697902971775], [-1.120619915145591, 53.50641729963201], [-1.121655418730809, 53.50641729963201], [-1.121655418730809, 53.505697902971775]]]}},
{"type": "Feature", "properties": {"fid": "SAMPLE-BLD-0015"}, "geometry": {"type": "Polygon", "coordinates": [[[-1.1245826488498898, 53.50816981339233], [-1.1237624916468407, 53.50816981339233], [-1.1237624916468407, 53.50899489588967], [-1.1245826488498898, 53.50899489588967], [-1.1245826488498898, 53.50816981339233]]]}},
{"type": "Feature", "properties": {"fid": "SAMPLE-BLD-0016"}, "geometry": {"type": "Polygon", "coordinates": [[[-1.1177877659478508, 53.505591439884014], [-1.1166036260698566, 53.505591439884014], [-1.1166036260698566, 53.50596227935097], [-1.1177877659478508, 53.50596227935097], [-1.1177877659478508, 53.505591439884014]]]}},
{"type": "Feature", "properties": {"fid": "SAMPLE-BLD-0017"}, "geometry": {"type": "Polygon", "coordinates": [[[-1.1221462804950066, 53.509814268366085], [-1.1216246928672782, 53.509814268366085], [-1.1216246928672782, 53.51040764622637], [-1.1221462804950066, 53.51040764622637], [-1.1221462804950066, 53.509814268366085]]]}},
{"type": "Feature", "properties": {"fid": "SAMPLE-BLD-0018"}, "geometry": {"type": "Polygon", "coordinates": [[[-1.1274510984013357, 53.50901394270881], [-1.1264394417083654, 53.50901394270881], [-1.1264394417083654, 53.50965775827298], [-1.1274510984013357, 53.50965775827298], [-1.1274510984013357, 53.50901394270881]]]}},
{"type": "Feature", "properties": {"fid": "SAMPLE-BLD-0019"}, "geometry": {"type": "Polygon", "coordinates": [[[-1.1157433106343675, 53.505823727615635], [-1.1147870743413486, 53.505823727615635], [-1.1147870743413486, 53.506480349541896], [-1.1157433106343675, 53.506480349541896], [-1.1157433106343675, 53.505823727615635]]]}},
{"type": "Feature", "properties": {"fid": "SAMPLE-BLD-0020"}, "geometry": {"type": "Polygon", "coordinates": [[[-1.119881467140045, 53.50710584798171], [-1.118809492915635, 53.50710584798171], [-1.118809492915635, 53.50797265663878], [-1.119881467140045, 53.50797265663878], [-1.119881467140045, 53.50710584798171]]]}},
{"type": "Feature", "properties": {"fid": "SAMPLE-BLD-0021"}, "geometry": {"type": "Polygon", "coordinates": [[[-1.121362623276125, 53.50897736984927], [-1.120914087734047, 53.50897736984927], [-1.120914087734047, 53.50969826506205], [-1.121362623276125, 53.50969826506205], [-1.121362623276125, 53.50897736984927]]]}},
{"type": "Feature", "properties": {"fid": "SAMPLE-BLD-0022"}, "geometry": {"type": "Polygon", "coordinates": [[[-1.1189401960366125, 53.5119378634552], [-1.1178826562073247, 53.5119378634552], [-1.1178826562073247, 53.51240862077446], [-1.1189401960366125, 53.51240862077446], [-1.1189401960366125, 53.5119378634552]]]}},
{"type": "Feature", "properties": {"fid": "SAMPLE-BLD-0023"}, "geometry": {"type": "Polygon", "coordinates": [[[-1.122598919805746, 53.50901787444296], [-1.1221808694633015, 53.50901787444296], [-1.1221808694633015, 53.50959489161474], [-1.122598919805746, 53.50959489161474], [-1.122598919805746, 53.50901787444296]]]}},
{"type": "Feature", "properties": {"fid": "SAMPLE-BLD-0024"}, "geometry": {"type": "Polygon", "coordinates": [[[-1.1256473226953083, 53.504053862150336], [-1.1252001591598433, 53.504053862150336], [-1.1252001591598433, 53.50481480194342], [-1.1256473226953083, 53.50481480194342], [-1.1256473226953083, 53.504053862150336]]]}},
{"type": "Feature", "properties": {"fid": "SAMPLE-BLD-0025"}, "geometry": {"type": "Polygon", "coordinates": [[[-1.1261892368917383, 53.50522853350327], [-1.1254764771292318, 53.50522853350327], [-1.1254764771292318, 53.506051386687744], [-1.1261892368917383, 53.506051386687744], [-1.1261892368917383, 53.50522853350327]]]}},
{"type": "Feature", "properties": {"fid": "SAMPLE-BLD-0026"}, "geometry": {"type": "Polygon", "coordinates": [[[-1.1268718617831979, 53.50704268660854], [-1.1260323098558827, 53.50704268660854], [-1.1260323098558827, 53.50787271690441], [-1.1268718617831979, 53.50787271690441], [-1.1268718617831979, 53.50704268660854]]]}},
{"type": "Feature", "properties": {"fid": "SAMPLE-BLD-0027"}, "geometry": {"type": "Polygon", "coordinates": [[[-1.1165300822702995, 53.510775860227284], [-1.1159073454186883, 53.510775860227284], [-1.1159073454186883, 53.51132503813761], [-1.1165300822702995, 53.51132503813761], [-1.1165300822702995, 53.510775860227284]]]}},
{"type": "Feature", "properties": {"fid": "SAMPLE-BLD-0028"}, "geometry": {"type": "Polygon", "coordinates": [[[-1.1229772036853571, 53.510957735444784], [-1.121811018722186, 53.510957735444784], [-1.121811018722186, 53.511348287988255], [-1.1229772036853571, 53.511348287988255], [-1.1229772036853571, 53.510957735444784]]]}},
{"type": "Feature", "properties": {"fid": "SAMPLE-BLD-0029"}, "geometry": {"type": "Polygon", "coordinates": [[[-1.1255329518011348, 53.50508761180138], [-1.12494628293419, 53.50508761180138], [-1.12494628293419, 53.50567858943958], [-1.1255329518011348, 53.50567858943958], [-1.1255329518011348, 53.50508761180138]]]}}
]}
